KUIPER-00071            
1 64818U 25151C   25246.91667824 -.00914633  00000+0 -64002-1 0  9993
2 64818  51.8925  51.1493 0006648 329.7424 306.8889 15.07678864  5523
KUIPER-00072            
1 64819U 25151D   25246.72692081  .00062850  00000+0  17373-2 0  9999
2 64819  51.8773  49.1064 0005771 330.8654  29.2010 15.36425245  7596
KUIPER-00073            
1 64820U 25151E   25246.91667824 -.00452668  00000+0 -29689-1 0  9993
2 64820  51.8933  51.2074 0011073 352.0857 343.1599 15.09430617  5377
KUIPER-00074            
1 64821U 25151F   25246.72326083  .00057278  00000+0  15842-2 0  9995
2 64821  51.8796  49.0852 0005600 329.9355  30.1310 15.36449961  7591
KUIPER-00075            
1 64822U 25151G   25246.70876279  .00069022  00000+0  18546-2 0  9995
2 64822  51.8798  49.0018 0005344 314.6097  45.4453 15.37264683  7591
KUIPER-00076            
1 64823U 25151H   25246.91667824 -.00458510  00000+0 -15032-1 0  9995
2 64823  51.8795  48.2476 0005987 321.6423 346.3785 15.32991264  4496
KUIPER-00077            
1 64824U 25151J   25246.91667824 -.00499220  00000+0 -23398-1 0  9993
2 64824  51.8885  49.1148 0005811 321.4196 304.0457 15.21482354  5709
KUIPER-00078            
1 64825U 25151K   25246.91667824 -.00323454  00000+0 -12559-1 0  9996
2 64825  51.8807  48.5589 0006906 356.2881 169.7077 15.26953729  5640
